{"fetched_at":"2026-07-21T07:07:09.830Z","source":"https://celestrak.org/NORAD/elements/gp.php?NAME=RCM&FORMAT=JSON","constellation":"rcm","records":[{"OBJECT_NAME":"RCM-1","OBJECT_ID":"2019-033A","EPOCH":"2026-07-20T11:33:40.651200","CLASSIFICATION_TYPE":"U","MEAN_MOTION":14.92591866,"ECCENTRICITY":0.00015164,"INCLINATION":97.76,"RA_OF_ASC_NODE":208.4587,"ARG_OF_PERICENTER":91.5873,"MEAN_ANOMALY":62.4793,"EPHEMERIS_TYPE":0,"NORAD_CAT_ID":44322,"ELEMENT_SET_NO":999,"REV_AT_EPOCH":38704,"BSTAR":0.000038781312,"MEAN_MOTION_DOT":0.00000343,"MEAN_MOTION_DDOT":0},{"OBJECT_NAME":"RCM-3","OBJECT_ID":"2019-033B","EPOCH":"2026-07-20T03:22:16.679712","CLASSIFICATION_TYPE":"U","MEAN_MOTION":14.92588435,"ECCENTRICITY":0.00015451,"INCLINATION":97.7599,"RA_OF_ASC_NODE":208.2165,"ARG_OF_PERICENTER":91.2473,"MEAN_ANOMALY":268.8923,"EPHEMERIS_TYPE":0,"NORAD_CAT_ID":44323,"ELEMENT_SET_NO":999,"REV_AT_EPOCH":38701,"BSTAR":-0.000019244745,"MEAN_MOTION_DOT":-0.00000254,"MEAN_MOTION_DDOT":0},{"OBJECT_NAME":"RCM-2","OBJECT_ID":"2019-033C","EPOCH":"2026-07-20T23:12:41.894784","CLASSIFICATION_TYPE":"U","MEAN_MOTION":14.92588957,"ECCENTRICITY":0.00015063,"INCLINATION":97.7598,"RA_OF_ASC_NODE":208.9818,"ARG_OF_PERICENTER":92.2577,"MEAN_ANOMALY":267.8815,"EPHEMERIS_TYPE":0,"NORAD_CAT_ID":44324,"ELEMENT_SET_NO":999,"REV_AT_EPOCH":38712,"BSTAR":0.000072489851,"MEAN_MOTION_DOT":0.0000069,"MEAN_MOTION_DDOT":0}]}
