RCM-1                   
1 44322U 19033A   26201.48172050  .00000343  00000+0  38781-4 0  9999
2 44322  97.7600 208.4587 0001516  91.5873  62.4793 14.92591866387040
RCM-3                   
1 44323U 19033B   26201.14047083 -.00000254  00000+0 -19245-4 0  9997
2 44323  97.7599 208.2165 0001545  91.2473 268.8923 14.92588435387015
RCM-2                   
1 44324U 19033C   26201.96715156  .00000690  00000+0  72490-4 0  9994
2 44324  97.7598 208.9818 0001506  92.2577 267.8815 14.92588957387120
